     2.100          NAVIGATION                              RINEX VERSION / TYPE
fic2rin                                 02/07/2012 00:11:05 PGM / RUN BY / DATE
                                                            END OF HEADER
32 12  2  6  4  0  0.0 -.403418205678D-03 -.545696821064D-11  .000000000000D+00
     .440000000000D+02 -.283125000000D+02  .495913513931D-08 -.159701873984D+01
    -.147335231304D-05  .118893493200D-01  .719912350178D-05  .515374076843D+04
     .100800000000D+06 -.182539224625D-06  .191208265648D+01 -.113621354103D-06
     .952144955654D+00  .238875000000D+03 -.620075738403D+00 -.829820279631D-08
    -.382515933324D-09  .100000000000D+01  .167400000000D+04  .000000000000D+00
     .240000000000D+01  .000000000000D+00 -.279396772385D-08  .440000000000D+02
     .936060000000D+05  .400000000000D+01
16 12  2  6  3 59 44.0 -.222152564675D-03 -.170530256582D-11  .000000000000D+00
     .100000000000D+01 -.102625000000D+03  .440054044303D-08  .157821255489D+01
    -.504963099957D-05  .640754704364D-02  .301934778690D-05  .515361068535D+04
     .100784000000D+06  .651925802231D-07 -.127699128406D+01  .104308128357D-06
     .979056253897D+00  .329593750000D+03 -.805661609326D-01 -.829105964163D-08
    -.442875590403D-09  .100000000000D+01  .167400000000D+04  .000000000000D+00
     .240000000000D+01  .000000000000D+00 -.977888703346D-08  .100000000000D+01
     .951960000000D+05  .400000000000D+01
30 12  2  6  3 59 28.0 -.349082984030D-04 -.135287336889D-10  .000000000000D+00
     .240000000000D+02 -.786562500000D+02  .502235205827D-08  .434609183080D+00
    -.395812094212D-05  .108860960463D-01  .215321779251D-05  .515361322212D+04
     .100768000000D+06 -.132247805595D-06 -.141779534980D+01  .111758708954D-07
     .958223403680D+00  .339562500000D+03  .155317081475D+01 -.880250951700D-08
    -.296798077117D-09  .100000000000D+01  .167400000000D+04  .000000000000D+00
     .240000000000D+01  .000000000000D+00 -.419095158577D-08  .240000000000D+02
     .975960000000D+05  .400000000000D+01
30 12  2  6  5 59 28.0 -.350056216121D-04 -.135287336889D-10  .000000000000D+00
     .260000000000D+02 -.729375000000D+02  .497449292188D-08  .148487065576D+01
    -.400468707085D-05  .108855421422D-01  .199861824512D-05  .515361195946D+04
     .107968000000D+06 -.745058059692D-07 -.141785888434D+01 -.301748514175D-06
     .958222679535D+00  .341000000000D+03  .155313199914D+01 -.853499837408D-08
    -.181078971237D-09  .100000000000D+01  .167400000000D+04  .000000000000D+00
     .485000000000D+01  .000000000000D+00 -.419095158577D-08  .260000000000D+02
     .100806000000D+06  .400000000000D+01
16 12  2  6  5 59 44.0 -.222164671868D-03 -.170530256582D-11  .000000000000D+00
     .130000000000D+02 -.954687500000D+02  .441232664826D-08  .262850703539D+01
    -.484846532345D-05  .640820397530D-02  .318884849548D-05  .515360927200D+04
     .107984000000D+06 -.178813934326D-06 -.127705162943D+01  .987201929092D-07
     .979053960042D+00  .329125000000D+03 -.806413929577D-01 -.817605485122D-08
    -.275011455331D-09  .100000000000D+01  .167400000000D+04  .000000000000D+00
     .240000000000D+01  .000000000000D+00 -.977888703346D-08  .130000000000D+02
     .100806000000D+06  .400000000000D+01
 1 12  2  6  6  0  0.0  .203385017812D-03  .106865627458D-10  .000000000000D+00
     .107000000000D+03  .302812500000D+02  .473519723997D-08 -.138386708892D+01
     .151246786118D-05  .578598584980D-03  .771693885326D-05  .515365313148D+04
     .108000000000D+06  .633299350739D-07  .771035445818D+00  .186264514923D-07
     .960160671483D+00  .231875000000D+03  .965647872390D+00 -.807390773924D-08
     .461804950316D-09  .100000000000D+01  .167400000000D+04  .000000000000D+00
     .340000000000D+01  .000000000000D+00  .838190317154D-08  .107000000000D+03
     .100806000000D+06  .400000000000D+01
 2 12  2  6  6  0  0.0  .377819407731D-03  .159161572810D-11  .000000000000D+00
     .116000000000D+03  .314062500000D+02  .535629453974D-08  .333863489200D+00
     .168196856976D-05  .108710362110D-01  .722520053387D-05  .515363459396D+04
     .108000000000D+06  .158324837685D-06  .759695598291D+00  .113621354103D-06
     .938740670317D+00  .228687500000D+03 -.287160690886D+01 -.850535428215D-08
     .450018745087D-09  .100000000000D+01  .167400000000D+04  .000000000000D+00
     .240000000000D+01  .000000000000D+00 -.172294676304D-07  .116000000000D+03
     .100806000000D+06  .400000000000D+01
 3 12  2  6  6  0  0.0  .591017305851D-05  .500222085975D-11  .000000000000D+00
     .840000000000D+02 -.968125000000D+02  .507878298027D-08  .467396843309D+00
    -.487454235554D-05  .150118983584D-01  .110585242510D-04  .515371075821D+04
     .108000000000D+06 -.223517417908D-06 -.401887806206D+00  .651925802231D-07
     .930847773775D+00  .153343750000D+03  .116842591708D+01 -.848678207997D-08
    -.120719314158D-09  .100000000000D+01  .167400000000D+04  .000000000000D+00
     .240000000000D+01  .000000000000D+00 -.419095158577D-08  .840000000000D+02
     .100806000000D+06  .400000000000D+01
 4 12  2  6  6  0  0.0  .855308026075D-04  .114823706099D-10  .000000000000D+00
     .570000000000D+02  .341250000000D+02  .522843207090D-08 -.285940497980D+01
     .170245766640D-05  .998557056300D-02  .736489892006D-05  .515378671455D+04
     .108000000000D+06  .707805156708D-07  .776738983051D+00 -.173225998878D-06
     .937788853390D+00  .224906250000D+03  .827235957127D+00 -.820069873488D-08
     .540736809573D-09  .100000000000D+01  .167400000000D+04  .000000000000D+00
     .240000000000D+01  .000000000000D+00 -.605359673500D-08  .570000000000D+02
     .100806000000D+06  .400000000000D+01
 5 12  2  6  6  0  0.0 -.279436353594D-03 -.454747350886D-11  .000000000000D+00
     .980000000000D+02 -.300000000000D+02  .509914097112D-08  .223063726242D+01
    -.155717134476D-05  .269502785522D-02  .595860183239D-05  .515359045029D+04
     .108000000000D+06  .558793544769D-08  .182299822786D+01 -.186264514923D-07
     .951427982429D+00  .262031250000D+03  .292815018772D+00 -.829034532616D-08
    -.451090218290D-09  .100000000000D+01  .167400000000D+04  .000000000000D+00
     .240000000000D+01  .000000000000D+00 -.102445483208D-07  .980000000000D+02
     .100806000000D+06  .400000000000D+01
 6 12  2  6  6  0  0.0  .289105810225D-04  .181898940355D-11  .000000000000D+00
     .177000000000D+03 -.917187500000D+02  .477198448659D-08  .239887795883D+01
    -.460259616375D-05  .698158133309D-02  .113993883133D-04  .515370994568D+04
     .108000000000D+06  .670552253723D-07 -.326189240394D+00  .121071934700D-06
     .937838978815D+00  .144468750000D+03 -.611815914211D+00 -.803926343902D-08
    -.185722021782D-10  .100000000000D+01  .167400000000D+04  .000000000000D+00
     .240000000000D+01  .000000000000D+00 -.512227416039D-08  .177000000000D+03
     .100806000000D+06  .400000000000D+01
 7 12  2  6  6  0  0.0  .550956465304D-04  .272848410532D-11  .000000000000D+00
     .410000000000D+02  .118093750000D+03  .436018161907D-08 -.119027651355D+01
     .602565705776D-05  .508490495849D-02  .381842255592D-05  .515362228775D+04
     .108000000000D+06  .409781932831D-07 -.235146109586D+01 -.949949026108D-07
     .975623248910D+00  .312437500000D+03 -.300522760795D+01 -.822248535666D-08
     .446447167745D-09  .100000000000D+01  .167400000000D+04  .000000000000D+00
     .240000000000D+01  .000000000000D+00 -.107102096081D-07  .410000000000D+02
     .100806000000D+06  .400000000000D+01
 8 12  2  6  6  0  0.0  .556930899620D-06  .113686837722D-12  .000000000000D+00
     .380000000000D+02  .104250000000D+03  .395516474849D-08 -.177500843497D+01
     .514835119247D-05  .120778718265D-01  .347383320332D-05  .515370763969D+04
     .108000000000D+06  .409781932831D-07 -.227052855295D+01 -.176951289177D-06
     .997588707860D+00  .333968750000D+03 -.298055569643D+01 -.799569019545D-08
     .544308386915D-09  .100000000000D+01  .167400000000D+04  .000000000000D+00
     .340000000000D+01  .000000000000D+00 -.465661287308D-08  .380000000000D+02
     .100806000000D+06  .400000000000D+01
 9 12  2  6  6  0  0.0  .136707443744D-03  .250111042988D-11  .000000000000D+00
     .850000000000D+02  .114125000000D+03  .404123976243D-08 -.184554672695D+01
     .627152621746D-05  .171891559148D-01  .423938035965D-05  .515363796043D+04
     .108000000000D+06  .188127160072D-06 -.237800944413D+01  .339001417160D-06
     .984434631254D+00  .310031250000D+03  .160491937961D+01 -.788318550918D-08
     .368586781690D-09  .100000000000D+01  .167400000000D+04  .000000000000D+00
     .340000000000D+01  .000000000000D+00 -.558793544769D-08  .850000000000D+02
     .100806000000D+06  .400000000000D+01
10 12  2  6  6  0  0.0 -.281236134470D-04 -.125055521494D-11  .000000000000D+00
     .830000000000D+02 -.321562500000D+02  .509021202776D-08  .262150359450D+01
    -.176392495632D-05  .111640293617D-01  .622868537903D-05  .515366173363D+04
     .108000000000D+06  .000000000000D+00  .184521503515D+01 -.173225998878D-06
     .946337109436D+00  .252500000000D+03  .741001069097D+00 -.818176937496D-08
    -.433946647048D-09  .100000000000D+01  .167400000000D+04  .000000000000D+00
     .340000000000D+01  .000000000000D+00 -.232830643654D-08  .830000000000D+02
     .100806000000D+06  .400000000000D+01
11 12  2  6  6  0  0.0 -.229815952480D-03 -.363797880709D-11  .000000000000D+00
     .106000000000D+03  .358125000000D+02  .631454874059D-08 -.101711700088D+01
     .197067856789D-05  .127430923749D-01  .877864658833D-05  .515367313004D+04
     .108000000000D+06  .128522515297D-06  .509266746627D+00  .339001417160D-06
     .888256310984D+00  .170437500000D+03  .102577159352D+01 -.893965808693D-08
     .506806824824D-09  .100000000000D+01  .167400000000D+04  .000000000000D+00
     .340000000000D+01  .000000000000D+00 -.116415321827D-07  .106000000000D+03
     .100806000000D+06  .400000000000D+01
